232P/Hill,e,14.6296,56.0383,53.6046,4.487057,0.1036959,0.33528358,276.0463,01/17.0/2017,2000,g 11.5,4.0
# From MPC 92986
233P/La Sagra,e,11.2831,74.9274,27.1675,3.030483,0.1868255,0.41112100,106.8098,01/17.0/2017,2000,g 15.0,4.0
# From MPC 82322
234P/LINEAR,e,11.5264,179.7225,358.1229,3.810448,0.1325074,0.25264550,342.0011,01/17.0/2017,2000,g 12.0,4.0
# From MPC 75728
235P/LINEAR,e,8.9039,204.4591,333.6983,3.990970,0.1236193,0.31525738,307.5470,01/17.0/2017,2000,g 12.0,4.0
# From MPC 75728
236P/LINEAR,e,16.3337,245.6734,119.2734,3.732279,0.1366920,0.50767457,318.0105,01/17.0/2017,2000,g 14.0,4.0
# From MPC 99821
237P/LINEAR,e,14.0229,245.4331,25.0441,3.509661,0.1499016,0.43446224,14.5883,01/17.0/2017,2000,g 14.5,2.0
# From MPC102956
238P/Read,e,1.2646,51.6543,324.9363,3.165176,0.1750279,0.25244632,15.1220,01/17.0/2017,2000,g 14.5,4.0
# From MPC 75729
239P/LINEAR,e,11.3052,255.9364,220.3882,4.470399,0.1042761,0.63137045,284.6055,01/17.0/2017,2000,g 17.5,2.0
# From MPC 94676
240P/NEAT,e,23.5042,74.9365,352.1426,3.871395,0.1293906,0.44901097,297.3357,01/17.0/2017,2000,g 12.0,4.0
# From MPC 75729
241P/LINEAR,e,20.8753,305.7522,110.5447,4.957915,0.0892803,0.60863403,212.4376,01/17.0/2017,2000,g 13.5,4.0
# From MPC 81861
242P/Spahr,e,32.5212,180.7027,246.9420,5.484039,0.0767456,0.27629021,134.8205,01/17.0/2017,2000,g  8.0,4.0
# From MPC 82322
243P/NEAT,e,7.6416,87.6618,283.5703,3.828978,0.1315466,0.35888095,282.8905,01/17.0/2017,2000,g 12.5,4.0
# From MPC 88331
244P/Scotti,e,2.2577,354.0697,92.9163,4.896203,0.0909735,0.19736043,165.9985,01/17.0/2017,2000,g  9.0,4.0
# From MPC 75729
245P/WISE,e,21.2132,316.7428,316.6524,4.041114,0.1213256,0.45828377,312.9688,01/17.0/2017,2000,g 14.0,4.0
# From MPC 93589
246P/NEAT,e,15.9805,78.7454,175.9918,4.022306,0.1221776,0.28592391,177.0425,01/17.0/2017,2000,g 10.5,4.0
# From MPC 75729
247P/LINEAR,e,13.6616,54.0221,47.4868,3.969472,0.1246249,0.62524718,274.7528,01/17.0/2017,2000,g 16.5,2.0
# From MPC 75730
248P/Gibbs,e,6.3524,207.7797,210.1454,5.987566,0.0672711,0.63808169,146.2357,01/17.0/2017,2000,g 14.0,4.0
# From MPC 92986
249P/LINEAR,e,8.3947,239.1664,65.6097,2.762975,0.2146044,0.81945380,89.5563,01/17.0/2017,2000,g 15.5,4.0
# From MPC 75730
250P/Larson,e,13.2894,73.6831,45.0754,3.732662,0.1366709,0.40711973,307.9083,01/17.0/2017,2000,g 14.5,4.0
# From MPC 75730
251P/LINEAR,e,23.4189,219.4084,31.1595,3.507374,0.1500482,0.50607574,332.9138,01/17.0/2017,2000,g 16.5,2.0
# From MPC102956
252P/LINEAR,e,10.4218,190.9452,343.3229,3.046612,0.1853440,0.67300814,57.0377,01/17.0/2017,2000,g 17.5,4.0
# From MPC 81473
253P/PANSTARRS,e,4.9406,146.8848,230.7461,3.468066,0.1526065,0.41268967,287.3842,01/17.0/2017,2000,g 14.5,4.0
# From MPC 81473
254P/McNaught,e,32.4903,129.6132,219.1429,4.624358,0.0991122,0.32120179,225.8785,01/17.0/2017,2000,g 11.0,4.0
# From NK 2214
255P/Levy,e,18.2534,279.7099,179.7085,3.038560,0.1860811,0.66783021,340.2636,01/17.0/2017,2000,g 20.0,4.0
# From MPC 84027
256P/LINEAR,e,27.6302,81.3850,124.2134,4.632670,0.0988455,0.41961808,138.4598,01/17.0/2017,2000,g 14.0,2.0
# From MPC 88332
257P/Catalina,e,20.2396,207.7832,117.9363,3.755802,0.1354098,0.43105145,179.3632,01/17.0/2017,2000,g 11.5,4.0
# From MPC 79655
258P/PANSTARRS,e,6.7445,126.2875,26.0571,4.404882,0.1066112,0.21023055,226.8772,01/17.0/2017,2000,g 13.0,4.0
# From MPC 79655
259P/Garradd,e,15.8891,51.4844,257.4826,2.731632,0.2183086,0.33773397,316.5607,01/17.0/2017,2000,g 15.5,4.0
# From MPC102102
260P/McNaught,e,15.6757,351.6388,15.5883,3.652514,0.1411940,0.60380750,223.1699,01/17.0/2017,2000,g 13.5,4.0
# From MPC102102
261P/Larson,e,6.0350,293.1599,64.0659,3.516334,0.1494751,0.42082305,228.3643,01/17.0/2017,2000,g 14.0,4.0
# From MPC 82322
262P/McNaught-Russell,e,29.1089,217.9448,171.0920,6.891681,0.0544774,0.81441628,82.0789,01/17.0/2017,2000,g 13.5,4.0
# From MPC 82323
263P/Gibbs,e,11.5309,105.8354,34.5881,3.061431,0.1839998,0.58749990,312.9269,01/17.0/2017,2000,g 18.0,4.0
# From MPC102102
264P/Larsen,e,25.1483,220.9028,346.4833,3.897413,0.1280971,0.37366533,240.9248,01/17.0/2017,2000,g 13.0,4.0
# From MPC 79870
265P/LINEAR,e,14.6638,344.5995,32.5758,4.226692,0.1134235,0.64931167,190.9787,01/17.0/2017,2000,g 14.5,4.0
# From MPC 90771
266P/Christensen,e,3.4280,4.9977,98.0306,3.531333,0.1485238,0.33980452,183.4602,01/17.0/2017,2000,g 12.5,4.0
# From MPC 81862
267P/LONEOS,e,6.0816,228.9884,113.5816,3.222924,0.1703448,0.61489807,266.2728,01/17.0/2017,2000,g 19.5,4.0
# From MPC 92277
268P/Bernardi,e,16.0976,127.6210,0.2946,4.560344,0.1012063,0.46970809,63.8828,01/17.0/2017,2000,g 14.0,4.0
# From MPC 93589
269P/Jedicke,e,6.8334,242.9569,226.2660,7.231362,0.0506844,0.44392217,41.1907,01/17.0/2017,2000,g 10.0,4.0
# From MPC 88332
270P/Gehrels,e,2.8988,223.0614,210.3782,6.697928,0.0568582,0.47020999,74.2534,01/17.0/2017,2000,g  8.0,4.0
# From MPC 92277
271P/van Houten-Lemmon,e,6.8578,9.2889,36.7710,7.064768,0.0524877,0.39359553,67.3761,01/17.0/2017,2000,g 11.0,4.0
# From MPC 81862
272P/NEAT,e,18.0918,109.4998,28.0781,4.447562,0.1050802,0.45539577,149.1822,01/17.0/2017,2000,g 16.0,2.0
# From MPC 82723
273P/Pons-Gambart,e,136.4457,320.4148,20.1632,31.62376,0.0055422,0.97427971,0.0000,12/17.7570/2012,2000,g 11.5,4.0
# From MPC 88332
274P/Tombaugh-Tenagra,e,15.8252,81.3603,38.6253,4.365532,0.1080559,0.43934191,153.8471,01/17.0/2017,2000,g 13.0,4.0
# From MPC 81862
275P/Hermann,e,21.3463,348.7191,174.1209,5.764348,0.0712162,0.71428924,105.4994,01/17.0/2017,2000,g 15.0,4.0
# From MPC 84935
276P/Vorobjov,e,14.7998,211.7992,203.5911,5.309579,0.0805590,0.27630077,120.2481,01/17.0/2017,2000,g 11.5,4.0
# From MPC 82323
277P/LINEAR,e,16.7499,276.3486,152.1743,3.857667,0.1300819,0.50376713,172.0152,01/17.0/2017,2000,g 14.0,4.0
# From MPC 83523
278P/McNaught,e,6.6842,15.4946,237.8940,3.697756,0.1386107,0.43410422,175.0529,01/17.0/2017,2000,g 14.0,4.0
# From MPC 10028
279P/La Sagra,e,5.0462,346.2485,5.8675,3.580724,0.1454614,0.39700785,27.1256,01/17.0/2017,2000,g 14.0,4.0
# From MPC 89013
280P/Larsen,e,11.7704,131.4872,104.5961,4.527907,0.1022958,0.41832273,115.8489,01/17.0/2017,2000,g 12.5,4.0
# From MPC 83145
281P/MOSS,e,4.7214,87.1825,27.2876,4.862656,0.0919166,0.17216671,156.7597,01/17.0/2017,2000,g 11.0,4.0
# From unp
282P/,e,5.8106,9.3585,217.0610,4.250133,0.1124865,0.18920011,164.4688,01/17.0/2017,2000,g 13.5,2.0
# From MPC 84027
283P/Spacewatch,e,14.4685,161.2019,22.2201,4.136701,0.1171447,0.48614795,161.6663,01/17.0/2017,2000,g 16.0,2.0
# From MPC 93589
284P/McNaught,e,11.8621,144.2948,202.8481,3.672067,0.1400678,0.37603950,121.5767,01/17.0/2017,2000,g 13.0,4.0
# From MPC 85339
285P/LINEAR,e,25.0251,185.4697,178.5343,4.507935,0.1029764,0.61839879,134.4012,01/17.0/2017,2000,g 15.0,4.0
# From MPC 90771
286P/Christensen,e,17.0294,283.9397,24.7336,4.117285,0.1179744,0.42357749,130.6302,01/17.0/2017,2000,g 14.0,4.0
# From MPC 96868
287P/Christensen,e,16.3016,139.0449,188.9358,4.175226,0.1155271,0.26893173,86.7938,01/17.0/2017,2000,g 13.5,4.0
# From unp
288P/,e,3.2400,83.1878,281.0488,3.049258,0.1851027,0.20110174,12.9160,01/17.0/2017,2000,g 16.0,2.0
# From MPC102102
289P/Blanpain,e,5.8991,68.9328,9.8247,3.045946,0.1854047,0.68449259,161.8688,01/17.0/2017,2000,g 10.0,4.0
# From MPC 95214
290P/Jager,e,19.0595,303.4116,180.7826,6.130963,0.0649249,0.64778290,67.6383,01/17.0/2017,2000,g 10.5,4.0
# From MPC 89314
291P/NEAT,e,6.0549,239.3586,176.1805,4.512489,0.1028205,0.43792410,116.0850,01/17.0/2017,2000,g 13.0,4.0
# From MPC 93589
292P/Li,e,24.2417,91.1253,319.5490,6.123497,0.0650436,0.58858780,70.1500,01/17.0/2017,2000,g 12.5,4.0
# From MPC 92278
293P/Spacewatch,e,9.0599,78.4277,41.2039,3.638706,0.1419985,0.41881055,156.6350,01/17.0/2017,2000,g 14.5,4.0
# From MPC 89013
294P/LINEAR,e,18.2181,312.6653,235.4392,3.205888,0.1717045,0.59456720,180.3546,01/17.0/2017,2000,g 15.5,4.0
# From MPC 93589
295P/LINEAR,e,21.1284,7.6400,73.1243,5.320839,0.0803034,0.61632166,78.6188,01/17.0/2017,2000,g 12.0,4.0
# From MPC 92278
296P/Garradd,e,25.2174,263.6415,350.0000,3.500716,0.1504765,0.47788084,158.3582,01/17.0/2017,2000,g 14.0,4.0
# From MPC102956
297P/Beshore,e,10.3237,97.6854,132.2649,3.445856,0.1540843,0.31927521,134.1523,01/17.0/2017,2000,g 15.0,4.0
# From MPC 87919
298P/Christensen,e,7.8719,52.8365,100.7509,3.590984,0.1448384,0.38795696,167.7430,01/17.0/2017,2000,g 15.0,4.0
# From MPC101100
299P/Catalina-PANSTARRS,e,10.4762,271.6677,323.6196,4.378058,0.1075925,0.28275528,74.5795,01/17.0/2017,2000,g 11.5,4.0
# From MPC 89314
300P/Catalina,e,5.6778,95.7280,222.8692,2.697581,0.2224551,0.69198397,214.5061,01/17.0/2017,2000,g 16.0,4.0
# From MPC 89014
301P/LINEAR-NEAT,e,10.3664,351.1578,193.6401,5.728961,0.0718771,0.58740010,62.3788,01/17.0/2017,2000,g 13.0,4.0
# From MPC101100
302P/Lemmon-PANSTARRS,e,6.0305,121.7796,208.2603,4.280668,0.1112850,0.22860964,29.1102,01/17.0/2017,2000,g 12.5,4.0
# From MPC 92278
303P/NEAT,e,7.0040,348.0147,356.9389,5.058624,0.0866274,0.50842387,71.6224,01/17.0/2017,2000,g 13.5,4.0
# From MPC 92987
304P/Ory,e,2.8064,59.2332,330.9560,3.229800,0.1698012,0.58612196,147.1299,01/17.0/2017,2000,g 16.5,4.0
# From MPC101100
305P/Skiff,e,11.6046,240.4103,147.0287,4.647093,0.0983857,0.69432038,77.7472,01/17.0/2017,2000,g 18.0,4.0
# From MPC 92278
306P/LINEAR,e,8.3364,341.4800,0.8882,3.115974,0.1791898,0.59490447,162.7979,01/17.0/2017,2000,g 19.0,4.0
# From MPC 91619
307P/LINEAR,e,4.4258,158.0910,222.3213,5.806917,0.0704345,0.67358718,53.4628,01/17.0/2017,2000,g 15.0,4.0
# From MPC 96869
308P/Lagerkvist-Carsenty,e,4.8486,63.1324,334.0079,6.627923,0.0577614,0.36246994,35.8768,01/17.0/2017,2000,g 13.0,2.0
# From MPC 94284
309P/LINEAR,e,17.7193,11.3198,50.4216,4.429278,0.1057316,0.61378482,73.7913,01/17.0/2017,2000,g 15.0,4.0
# From MPC 98566
310P/Hill,e,13.1859,8.9610,31.6678,4.161997,0.1160784,0.42599253,74.1649,01/17.0/2017,2000,g 13.5,4.0
# From MPC101101
311P/PANSTARRS,e,4.9664,279.2638,144.0056,2.188788,0.3043676,0.11571391,306.8256,01/17.0/2017,2000,g 17.0,4.0
# From MPC 92279
